[
  {
    "OBJECT_NAME": "STARLINK-5833",
    "OBJECT_ID": "23028AJ",
    "EPOCH": "2025-11-11T00:11:02.560992",
    "MEAN_MOTION": 14.98332419,
    "ECCENTRICITY": 0.0002903,
    "INCLINATION": 69.9956,
    "RA_OF_ASC_NODE": 163.7753,
    "ARG_OF_PERICENTER": 269.0587,
    "MEAN_ANOMALY": 91.024,
    "EPHEMERIS_TYPE": 0,
    "CLASSIFICATION_TYPE": "U",
    "NORAD_CAT_ID": 55773,
    "ELEMENT_SET_NO": 999,
    "REV_AT_EPOCH": 14875,
    "BSTAR": 3.7290000000000004e-05,
    "MEAN_MOTION_DOT": 3.52e-06,
    "MEAN_MOTION_DDOT": 0.0,
    "TLE_LINE1": "1 55773U 23028AJ  25315.00766853  .00000352  00000+0  37290-4 0  9997",
    "TLE_LINE2": "2 55773  69.9956 163.7753 0002903 269.0587  91.0240 14.98332419148751",
    "COMMENT": "Grouped by shell and plane from TLE"
  },
  {
    "OBJECT_NAME": "STARLINK-5812",
    "OBJECT_ID": "23028AK",
    "EPOCH": "2025-11-10T23:41:00.279456",
    "MEAN_MOTION": 14.98337673,
    "ECCENTRICITY": 0.0002587,
    "INCLINATION": 69.9972,
    "RA_OF_ASC_NODE": 163.7046,
    "ARG_OF_PERICENTER": 280.4718,
    "MEAN_ANOMALY": 79.6149,
    "EPHEMERIS_TYPE": 0,
    "CLASSIFICATION_TYPE": "U",
    "NORAD_CAT_ID": 55774,
    "ELEMENT_SET_NO": 999,
    "REV_AT_EPOCH": 14875,
    "BSTAR": 0.00012169000000000001,
    "MEAN_MOTION_DOT": 1.36e-05,
    "MEAN_MOTION_DDOT": 0.0,
    "TLE_LINE1": "1 55774U 23028AK  25314.98680879  .00001360  00000+0  12169-3 0  9994",
    "TLE_LINE2": "2 55774  69.9972 163.7046 0002587 280.4718  79.6149 14.98337673148753",
    "COMMENT": "Grouped by shell and plane from TLE"
  },
  {
    "OBJECT_NAME": "STARLINK-5809",
    "OBJECT_ID": "23028AL",
    "EPOCH": "2025-11-10T23:34:59.397024",
    "MEAN_MOTION": 14.98331103,
    "ECCENTRICITY": 0.0003426,
    "INCLINATION": 69.9987,
    "RA_OF_ASC_NODE": 163.69,
    "ARG_OF_PERICENTER": 262.4548,
    "MEAN_ANOMALY": 97.6222,
    "EPHEMERIS_TYPE": 0,
    "CLASSIFICATION_TYPE": "U",
    "NORAD_CAT_ID": 55775,
    "ELEMENT_SET_NO": 999,
    "REV_AT_EPOCH": 14875,
    "BSTAR": 0.0,
    "MEAN_MOTION_DOT": -1.603e-05,
    "MEAN_MOTION_DDOT": 0.0,
    "TLE_LINE1": "1 55775U 23028AL  25314.98263191 -.00001603  00000+0 -12657-3 0  9993",
    "TLE_LINE2": "2 55775  69.9987 163.6900 0003426 262.4548  97.6222 14.98331103148756",
    "COMMENT": "Grouped by shell and plane from TLE"
  },
  {
    "OBJECT_NAME": "STARLINK-5814",
    "OBJECT_ID": "23028AN",
    "EPOCH": "2025-11-11T00:59:05.645184",
    "MEAN_MOTION": 14.98330391,
    "ECCENTRICITY": 0.0002551,
    "INCLINATION": 69.9981,
    "RA_OF_ASC_NODE": 163.4928,
    "ARG_OF_PERICENTER": 264.0903,
    "MEAN_ANOMALY": 95.9966,
    "EPHEMERIS_TYPE": 0,
    "CLASSIFICATION_TYPE": "U",
    "NORAD_CAT_ID": 55777,
    "ELEMENT_SET_NO": 999,
    "REV_AT_EPOCH": 14876,
    "BSTAR": 0.0,
    "MEAN_MOTION_DOT": -2.34e-06,
    "MEAN_MOTION_DDOT": 0.0,
    "TLE_LINE1": "1 55777U 23028AN  25315.04103756 -.00000234  00000+0 -11790-4 0  9990",
    "TLE_LINE2": "2 55777  69.9981 163.4928 0002551 264.0903  95.9966 14.98330391148766",
    "COMMENT": "Grouped by shell and plane from TLE"
  },
  {
    "OBJECT_NAME": "STARLINK-5816",
    "OBJECT_ID": "23028AP",
    "EPOCH": "2025-11-11T00:53:04.820640",
    "MEAN_MOTION": 14.98330294,
    "ECCENTRICITY": 0.0002631,
    "INCLINATION": 69.9982,
    "RA_OF_ASC_NODE": 163.4789,
    "ARG_OF_PERICENTER": 271.585,
    "MEAN_ANOMALY": 88.5008,
    "EPHEMERIS_TYPE": 0,
    "CLASSIFICATION_TYPE": "U",
    "NORAD_CAT_ID": 55778,
    "ELEMENT_SET_NO": 999,
    "REV_AT_EPOCH": 14876,
    "BSTAR": 1.2819e-05,
    "MEAN_MOTION_DOT": 6e-07,
    "MEAN_MOTION_DDOT": 0.0,
    "TLE_LINE1": "1 55778U 23028AP  25315.03686135  .00000060  00000+0  12819-4 0  9995",
    "TLE_LINE2": "2 55778  69.9982 163.4789 0002631 271.5850  88.5008 14.98330294148763",
    "COMMENT": "Grouped by shell and plane from TLE"
  },
  {
    "OBJECT_NAME": "STARLINK-5819",
    "OBJECT_ID": "23028AR",
    "EPOCH": "2025-11-11T00:47:03.911424",
    "MEAN_MOTION": 14.98335038,
    "ECCENTRICITY": 0.0002668,
    "INCLINATION": 69.9995,
    "RA_OF_ASC_NODE": 163.4633,
    "ARG_OF_PERICENTER": 271.69,
    "MEAN_ANOMALY": 88.3953,
    "EPHEMERIS_TYPE": 0,
    "CLASSIFICATION_TYPE": "U",
    "NORAD_CAT_ID": 55780,
    "ELEMENT_SET_NO": 999,
    "REV_AT_EPOCH": 14876,
    "BSTAR": 3.2324000000000004e-05,
    "MEAN_MOTION_DOT": 2.93e-06,
    "MEAN_MOTION_DDOT": 0.0,
    "TLE_LINE1": "1 55780U 23028AR  25315.03268416  .00000293  00000+0  32324-4 0  9997",
    "TLE_LINE2": "2 55780  69.9995 163.4633 0002668 271.6900  88.3953 14.98335038148763",
    "COMMENT": "Grouped by shell and plane from TLE"
  },
  {
    "OBJECT_NAME": "STARLINK-5820",
    "OBJECT_ID": "23028AS",
    "EPOCH": "2025-11-10T23:28:58.127520",
    "MEAN_MOTION": 14.98331386,
    "ECCENTRICITY": 0.0002772,
    "INCLINATION": 69.9973,
    "RA_OF_ASC_NODE": 163.7096,
    "ARG_OF_PERICENTER": 273.2593,
    "MEAN_ANOMALY": 86.8249,
    "EPHEMERIS_TYPE": 0,
    "CLASSIFICATION_TYPE": "U",
    "NORAD_CAT_ID": 55781,
    "ELEMENT_SET_NO": 999,
    "REV_AT_EPOCH": 14875,
    "BSTAR": 1.1656e-05,
    "MEAN_MOTION_DOT": 4.6e-07,
    "MEAN_MOTION_DDOT": 0.0,
    "TLE_LINE1": "1 55781U 23028AS  25314.97845055  .00000046  00000+0  11656-4 0  9991",
    "TLE_LINE2": "2 55781  69.9973 163.7096 0002772 273.2593  86.8249 14.98331386148750",
    "COMMENT": "Grouped by shell and plane from TLE"
  },
  {
    "OBJECT_NAME": "STARLINK-5778",
    "OBJECT_ID": "23090BA",
    "EPOCH": "2025-11-10T23:10:30.781056",
    "MEAN_MOTION": 15.02535117,
    "ECCENTRICITY": 0.0001404,
    "INCLINATION": 43.0027,
    "RA_OF_ASC_NODE": 160.7465,
    "ARG_OF_PERICENTER": 263.324,
    "MEAN_ANOMALY": 96.7443,
    "EPHEMERIS_TYPE": 0,
    "CLASSIFICATION_TYPE": "U",
    "NORAD_CAT_ID": 57149,
    "ELEMENT_SET_NO": 999,
    "REV_AT_EPOCH": 13300,
    "BSTAR": 1.7736e-05,
    "MEAN_MOTION_DOT": 3.6e-07,
    "MEAN_MOTION_DDOT": 0.0,
    "TLE_LINE1": "1 57149U 23090BA  25314.96563404  .00000036  00000+0  17736-4 0  9998",
    "TLE_LINE2": "2 57149  43.0027 160.7465 0001404 263.3240  96.7443 15.02535117133002",
    "COMMENT": "Grouped by shell and plane from TLE"
  },
  {
    "OBJECT_NAME": "STARLINK-6362",
    "OBJECT_ID": "23099Y",
    "EPOCH": "2025-11-10T23:29:48.922944",
    "MEAN_MOTION": 15.02535714,
    "ECCENTRICITY": 0.0001185,
    "INCLINATION": 43.0036,
    "RA_OF_ASC_NODE": 161.4838,
    "ARG_OF_PERICENTER": 273.4205,
    "MEAN_ANOMALY": 86.6502,
    "EPHEMERIS_TYPE": 0,
    "CLASSIFICATION_TYPE": "U",
    "NORAD_CAT_ID": 57350,
    "ELEMENT_SET_NO": 999,
    "REV_AT_EPOCH": 12840,
    "BSTAR": 4.5026e-05,
    "MEAN_MOTION_DOT": 4.05e-06,
    "MEAN_MOTION_DDOT": 0.0,
    "TLE_LINE1": "1 57350U 23099Y   25314.97903846  .00000405  00000+0  45026-4 0  9993",
    "TLE_LINE2": "2 57350  43.0036 161.4838 0001185 273.4205  86.6502 15.02535714128402",
    "COMMENT": "Grouped by shell and plane from TLE"
  },
  {
    "OBJECT_NAME": "STARLINK-6297",
    "OBJECT_ID": "23099AA",
    "EPOCH": "2025-11-10T23:20:14.992800",
    "MEAN_MOTION": 15.02542717,
    "ECCENTRICITY": 0.0001084,
    "INCLINATION": 42.9937,
    "RA_OF_ASC_NODE": 161.4404,
    "ARG_OF_PERICENTER": 287.6428,
    "MEAN_ANOMALY": 72.4295,
    "EPHEMERIS_TYPE": 0,
    "CLASSIFICATION_TYPE": "U",
    "NORAD_CAT_ID": 57352,
    "ELEMENT_SET_NO": 999,
    "REV_AT_EPOCH": 12840,
    "BSTAR": 0.0,
    "MEAN_MOTION_DOT": -3.24e-06,
    "MEAN_MOTION_DDOT": 0.0,
    "TLE_LINE1": "1 57352U 23099AA  25314.97239575 -.00000324  00000+0 -89392-5 0  9993",
    "TLE_LINE2": "2 57352  42.9937 161.4404 0001084 287.6428  72.4295 15.02542717128406",
    "COMMENT": "Grouped by shell and plane from TLE"
  },
  {
    "OBJECT_NAME": "STARLINK-6293",
    "OBJECT_ID": "23099AC",
    "EPOCH": "2025-11-10T23:07:26.750784",
    "MEAN_MOTION": 15.02535975,
    "ECCENTRICITY": 9.88e-05,
    "INCLINATION": 43.0029,
    "RA_OF_ASC_NODE": 161.3653,
    "ARG_OF_PERICENTER": 264.3702,
    "MEAN_ANOMALY": 95.7028,
    "EPHEMERIS_TYPE": 0,
    "CLASSIFICATION_TYPE": "U",
    "NORAD_CAT_ID": 57354,
    "ELEMENT_SET_NO": 999,
    "REV_AT_EPOCH": 12840,
    "BSTAR": 3.6115e-05,
    "MEAN_MOTION_DOT": 2.84e-06,
    "MEAN_MOTION_DDOT": 0.0,
    "TLE_LINE1": "1 57354U 23099AC  25314.96350406  .00000284  00000+0  36115-4 0  9998",
    "TLE_LINE2": "2 57354  43.0029 161.3653 0000988 264.3702  95.7028 15.02535975128406",
    "COMMENT": "Grouped by shell and plane from TLE"
  },
  {
    "OBJECT_NAME": "STARLINK-6276",
    "OBJECT_ID": "23099AD",
    "EPOCH": "2025-11-10T23:25:01.336224",
    "MEAN_MOTION": 15.02534994,
    "ECCENTRICITY": 0.000105,
    "INCLINATION": 43.003,
    "RA_OF_ASC_NODE": 161.4578,
    "ARG_OF_PERICENTER": 266.6615,
    "MEAN_ANOMALY": 93.4108,
    "EPHEMERIS_TYPE": 0,
    "CLASSIFICATION_TYPE": "U",
    "NORAD_CAT_ID": 57355,
    "ELEMENT_SET_NO": 999,
    "REV_AT_EPOCH": 12840,
    "BSTAR": 0.00011017000000000001,
    "MEAN_MOTION_DOT": 1.285e-05,
    "MEAN_MOTION_DDOT": 0.0,
    "TLE_LINE1": "1 57355U 23099AD  25314.97570991  .00001285  00000+0  11017-3 0  9998",
    "TLE_LINE2": "2 57355  43.0030 161.4578 0001050 266.6615  93.4108 15.02534994128409",
    "COMMENT": "Grouped by shell and plane from TLE"
  },
  {
    "OBJECT_NAME": "STARLINK-6355",
    "OBJECT_ID": "23099AE",
    "EPOCH": "2025-11-10T23:05:50.353440",
    "MEAN_MOTION": 15.02541937,
    "ECCENTRICITY": 0.0001182,
    "INCLINATION": 43.0031,
    "RA_OF_ASC_NODE": 161.3533,
    "ARG_OF_PERICENTER": 277.9144,
    "MEAN_ANOMALY": 82.1564,
    "EPHEMERIS_TYPE": 0,
    "CLASSIFICATION_TYPE": "U",
    "NORAD_CAT_ID": 57356,
    "ELEMENT_SET_NO": 999,
    "REV_AT_EPOCH": 12840,
    "BSTAR": 8.346400000000001e-05,
    "MEAN_MOTION_DOT": 9.24e-06,
    "MEAN_MOTION_DDOT": 0.0,
    "TLE_LINE1": "1 57356U 23099AE  25314.96238835  .00000924  00000+0  83464-4 0  9991",
    "TLE_LINE2": "2 57356  43.0031 161.3533 0001182 277.9144  82.1564 15.02541937128405",
    "COMMENT": "Grouped by shell and plane from TLE"
  }
]